FLOCK 4H-34             
1 66737U 25276BZ  25353.75001156 -.00024707  00000+0 -12118-2 0  9990
2 66737  97.4455  65.4248 0002419 176.0565 353.7602 15.18146993  2612
FLOCK 4H-35             
1 66738U 25276CA  25353.75001156 -.00022513  00000+0 -11009-2 0  9992
2 66738  97.4417  65.4173 0002352 156.2593  21.4063 15.18231111  2612
FLOCK 4H-36             
1 66739U 25276CB  25353.75001156 -.00024567  00000+0 -12107-2 0  9994
2 66739  97.4465  65.4230 0002262 191.8819 326.5144 15.17980626  2616
TRANSPORTER-15 CC       
1 66740U 25276CC  25353.65927729  .00004592  00000+0  23136-3 0  9997
2 66740  97.4424  65.3171 0001978 255.7883 104.3131 15.17664329  3179
TRANSPORTER-15 CD       
1 66741U 25276CD  25353.59411340  .00002036  00000+0  10486-3 0  9993
2 66741  97.4420  65.2436 0001381 216.7985 143.3154 15.17518211  3162
TRANSPORTER-15 CE       
1 66742U 25276CE  25353.65870801  .00003473  00000+0  17579-3 0  9998
2 66742  97.4416  65.3075 0001364 204.1741 155.9429 15.17663919  3171
TRANSPORTER-15 CF       
1 66743U 25276CF  25353.66186270  .00004194  00000+0  21278-3 0  9992
2 66743  97.4415  65.3031 0000433 269.9787  90.1397 15.17467426  3177
TRANSPORTER-15 CG       
1 66744U 25276CG  25353.66295470  .00001903  00000+0  98834-4 0  9994
2 66744  97.4425  65.3107 0001387 267.3904  92.7171 15.17300941  3171
TRANSPORTER-15 CH       
1 66745U 25276CH  25352.14493979  .00002939  00000+0  15035-3 0  9992
2 66745  97.4425  63.8169 0000888 243.2573 116.8570 15.17410402  2942
TRANSPORTER-15 CJ       
1 66746U 25276CJ  25353.20003709  .00002728  00000+0  13980-3 0  9992
2 66746  97.4422  64.8535 0000962 234.0891 126.0254 15.17416472  3106
TRANSPORTER-15 CK       
1 66747U 25276CK  25353.75001156 -.00027777  00000+0 -13873-2 0  9990
2 66747  97.4427  65.3974 0001155 213.5835 275.6063 15.17543339  1302
TRANSPORTER-15 CL       
1 66748U 25276CL  25353.65366752  .00012947  00000+0  63246-3 0  9997
2 66748  97.4418  65.3168 0001819 237.0515 123.0544 15.18382779  3178
