CCSDS_OMM_VERS = 2.0
CREATION_DATE  = 
ORIGINATOR     = 

OBJECT_NAME    = FLOCK 4H-34
OBJECT_ID      = 2025-276BZ
CENTER_NAME    = EARTH
REF_FRAME      = TEME
TIME_SYSTEM    = UTC
MEAN_ELEMENT_THEORY = SGP/SGP4

EPOCH          = 2025-12-19T18:00:00.998784
MEAN_MOTION    = 15.18146993
ECCENTRICITY   = .0002419
INCLINATION    = 97.4455
RA_OF_ASC_NODE = 65.4248
ARG_OF_PERICENTER = 176.0565
MEAN_ANOMALY   = 353.7602

EPHEMERIS_TYPE = 0
CLASSIFICATION_TYPE = U
NORAD_CAT_ID   = 66737
ELEMENT_SET_NO = 999
REV_AT_EPOCH   = 261
BSTAR          = -.12118E-2
MEAN_MOTION_DOT = -.24707E-3
MEAN_MOTION_DDOT = 0

CCSDS_OMM_VERS = 2.0
CREATION_DATE  = 
ORIGINATOR     = 

OBJECT_NAME    = FLOCK 4H-35
OBJECT_ID      = 2025-276CA
CENTER_NAME    = EARTH
REF_FRAME      = TEME
TIME_SYSTEM    = UTC
MEAN_ELEMENT_THEORY = SGP/SGP4

EPOCH          = 2025-12-19T18:00:00.998784
MEAN_MOTION    = 15.18231111
ECCENTRICITY   = .0002352
INCLINATION    = 97.4417
RA_OF_ASC_NODE = 65.4173
ARG_OF_PERICENTER = 156.2593
MEAN_ANOMALY   = 21.4063

EPHEMERIS_TYPE = 0
CLASSIFICATION_TYPE = U
NORAD_CAT_ID   = 66738
ELEMENT_SET_NO = 999
REV_AT_EPOCH   = 261
BSTAR          = -.11009E-2
MEAN_MOTION_DOT = -.22513E-3
MEAN_MOTION_DDOT = 0

CCSDS_OMM_VERS = 2.0
CREATION_DATE  = 
ORIGINATOR     = 

OBJECT_NAME    = FLOCK 4H-36
OBJECT_ID      = 2025-276CB
CENTER_NAME    = EARTH
REF_FRAME      = TEME
TIME_SYSTEM    = UTC
MEAN_ELEMENT_THEORY = SGP/SGP4

EPOCH          = 2025-12-19T18:00:00.998784
MEAN_MOTION    = 15.17980626
ECCENTRICITY   = .0002262
INCLINATION    = 97.4465
RA_OF_ASC_NODE = 65.4230
ARG_OF_PERICENTER = 191.8819
MEAN_ANOMALY   = 326.5144

EPHEMERIS_TYPE = 0
CLASSIFICATION_TYPE = U
NORAD_CAT_ID   = 66739
ELEMENT_SET_NO = 999
REV_AT_EPOCH   = 261
BSTAR          = -.12107E-2
MEAN_MOTION_DOT = -.24567E-3
MEAN_MOTION_DDOT = 0

CCSDS_OMM_VERS = 2.0
CREATION_DATE  = 
ORIGINATOR     = 

OBJECT_NAME    = TRANSPORTER-15 CC
OBJECT_ID      = 2025-276CC
CENTER_NAME    = EARTH
REF_FRAME      = TEME
TIME_SYSTEM    = UTC
MEAN_ELEMENT_THEORY = SGP/SGP4

EPOCH          = 2025-12-19T15:49:21.557856
MEAN_MOTION    = 15.17664329
ECCENTRICITY   = .0001978
INCLINATION    = 97.4424
RA_OF_ASC_NODE = 65.3171
ARG_OF_PERICENTER = 255.7883
MEAN_ANOMALY   = 104.3131

EPHEMERIS_TYPE = 0
CLASSIFICATION_TYPE = U
NORAD_CAT_ID   = 66740
ELEMENT_SET_NO = 999
REV_AT_EPOCH   = 317
BSTAR          = .23136E-3
MEAN_MOTION_DOT = .4592E-4
MEAN_MOTION_DDOT = 0

CCSDS_OMM_VERS = 2.0
CREATION_DATE  = 
ORIGINATOR     = 

OBJECT_NAME    = TRANSPORTER-15 CD
OBJECT_ID      = 2025-276CD
CENTER_NAME    = EARTH
REF_FRAME      = TEME
TIME_SYSTEM    = UTC
MEAN_ELEMENT_THEORY = SGP/SGP4

EPOCH          = 2025-12-19T14:15:31.397760
MEAN_MOTION    = 15.17518211
ECCENTRICITY   = .0001381
INCLINATION    = 97.4420
RA_OF_ASC_NODE = 65.2436
ARG_OF_PERICENTER = 216.7985
MEAN_ANOMALY   = 143.3154

EPHEMERIS_TYPE = 0
CLASSIFICATION_TYPE = U
NORAD_CAT_ID   = 66741
ELEMENT_SET_NO = 999
REV_AT_EPOCH   = 316
BSTAR          = .10486E-3
MEAN_MOTION_DOT = .2036E-4
MEAN_MOTION_DDOT = 0

CCSDS_OMM_VERS = 2.0
CREATION_DATE  = 
ORIGINATOR     = 

OBJECT_NAME    = TRANSPORTER-15 CE
OBJECT_ID      = 2025-276CE
CENTER_NAME    = EARTH
REF_FRAME      = TEME
TIME_SYSTEM    = UTC
MEAN_ELEMENT_THEORY = SGP/SGP4

EPOCH          = 2025-12-19T15:48:32.372064
MEAN_MOTION    = 15.17663919
ECCENTRICITY   = .0001364
INCLINATION    = 97.4416
RA_OF_ASC_NODE = 65.3075
ARG_OF_PERICENTER = 204.1741
MEAN_ANOMALY   = 155.9429

EPHEMERIS_TYPE = 0
CLASSIFICATION_TYPE = U
NORAD_CAT_ID   = 66742
ELEMENT_SET_NO = 999
REV_AT_EPOCH   = 317
BSTAR          = .17579E-3
MEAN_MOTION_DOT = .3473E-4
MEAN_MOTION_DDOT = 0

CCSDS_OMM_VERS = 2.0
CREATION_DATE  = 
ORIGINATOR     = 

OBJECT_NAME    = TRANSPORTER-15 CF
OBJECT_ID      = 2025-276CF
CENTER_NAME    = EARTH
REF_FRAME      = TEME
TIME_SYSTEM    = UTC
MEAN_ELEMENT_THEORY = SGP/SGP4

EPOCH          = 2025-12-19T15:53:04.937280
MEAN_MOTION    = 15.17467426
ECCENTRICITY   = .0000433
INCLINATION    = 97.4415
RA_OF_ASC_NODE = 65.3031
ARG_OF_PERICENTER = 269.9787
MEAN_ANOMALY   = 90.1397

EPHEMERIS_TYPE = 0
CLASSIFICATION_TYPE = U
NORAD_CAT_ID   = 66743
ELEMENT_SET_NO = 999
REV_AT_EPOCH   = 317
BSTAR          = .21278E-3
MEAN_MOTION_DOT = .4194E-4
MEAN_MOTION_DDOT = 0

CCSDS_OMM_VERS = 2.0
CREATION_DATE  = 
ORIGINATOR     = 

OBJECT_NAME    = TRANSPORTER-15 CG
OBJECT_ID      = 2025-276CG
CENTER_NAME    = EARTH
REF_FRAME      = TEME
TIME_SYSTEM    = UTC
MEAN_ELEMENT_THEORY = SGP/SGP4

EPOCH          = 2025-12-19T15:54:39.286080
MEAN_MOTION    = 15.17300941
ECCENTRICITY   = .0001387
INCLINATION    = 97.4425
RA_OF_ASC_NODE = 65.3107
ARG_OF_PERICENTER = 267.3904
MEAN_ANOMALY   = 92.7171

EPHEMERIS_TYPE = 0
CLASSIFICATION_TYPE = U
NORAD_CAT_ID   = 66744
ELEMENT_SET_NO = 999
REV_AT_EPOCH   = 317
BSTAR          = .98834E-4
MEAN_MOTION_DOT = .1903E-4
MEAN_MOTION_DDOT = 0

CCSDS_OMM_VERS = 2.0
CREATION_DATE  = 
ORIGINATOR     = 

OBJECT_NAME    = TRANSPORTER-15 CH
OBJECT_ID      = 2025-276CH
CENTER_NAME    = EARTH
REF_FRAME      = TEME
TIME_SYSTEM    = UTC
MEAN_ELEMENT_THEORY = SGP/SGP4

EPOCH          = 2025-12-18T03:28:42.797856
MEAN_MOTION    = 15.17410402
ECCENTRICITY   = .00008886
INCLINATION    = 97.4425
RA_OF_ASC_NODE = 63.8169
ARG_OF_PERICENTER = 243.2573
MEAN_ANOMALY   = 116.8570

EPHEMERIS_TYPE = 0
CLASSIFICATION_TYPE = U
NORAD_CAT_ID   = 66745
ELEMENT_SET_NO = 999
REV_AT_EPOCH   = 294
BSTAR          = .15034976E-3
MEAN_MOTION_DOT = .2939E-4
MEAN_MOTION_DDOT = 0

CCSDS_OMM_VERS = 2.0
CREATION_DATE  = 
ORIGINATOR     = 

OBJECT_NAME    = TRANSPORTER-15 CJ
OBJECT_ID      = 2025-276CJ
CENTER_NAME    = EARTH
REF_FRAME      = TEME
TIME_SYSTEM    = UTC
MEAN_ELEMENT_THEORY = SGP/SGP4

EPOCH          = 2025-12-19T04:48:03.204576
MEAN_MOTION    = 15.17416472
ECCENTRICITY   = .00009628
INCLINATION    = 97.4422
RA_OF_ASC_NODE = 64.8535
ARG_OF_PERICENTER = 234.0891
MEAN_ANOMALY   = 126.0254

EPHEMERIS_TYPE = 0
CLASSIFICATION_TYPE = U
NORAD_CAT_ID   = 66746
ELEMENT_SET_NO = 999
REV_AT_EPOCH   = 310
BSTAR          = .13979791E-3
MEAN_MOTION_DOT = .2728E-4
MEAN_MOTION_DDOT = 0

CCSDS_OMM_VERS = 2.0
CREATION_DATE  = 
ORIGINATOR     = 

OBJECT_NAME    = TRANSPORTER-15 CK
OBJECT_ID      = 2025-276CK
CENTER_NAME    = EARTH
REF_FRAME      = TEME
TIME_SYSTEM    = UTC
MEAN_ELEMENT_THEORY = SGP/SGP4

EPOCH          = 2025-12-19T18:00:00.998784
MEAN_MOTION    = 15.17543339
ECCENTRICITY   = .0001155
INCLINATION    = 97.4427
RA_OF_ASC_NODE = 65.3974
ARG_OF_PERICENTER = 213.5835
MEAN_ANOMALY   = 275.6063

EPHEMERIS_TYPE = 0
CLASSIFICATION_TYPE = U
NORAD_CAT_ID   = 66747
ELEMENT_SET_NO = 999
REV_AT_EPOCH   = 130
BSTAR          = -.13873E-2
MEAN_MOTION_DOT = -.27777E-3
MEAN_MOTION_DDOT = 0

CCSDS_OMM_VERS = 2.0
CREATION_DATE  = 
ORIGINATOR     = 

OBJECT_NAME    = TRANSPORTER-15 CL
OBJECT_ID      = 2025-276CL
CENTER_NAME    = EARTH
REF_FRAME      = TEME
TIME_SYSTEM    = UTC
MEAN_ELEMENT_THEORY = SGP/SGP4

EPOCH          = 2025-12-19T15:41:16.873728
MEAN_MOTION    = 15.18382779
ECCENTRICITY   = .0001819
INCLINATION    = 97.4418
RA_OF_ASC_NODE = 65.3168
ARG_OF_PERICENTER = 237.0515
MEAN_ANOMALY   = 123.0544

EPHEMERIS_TYPE = 0
CLASSIFICATION_TYPE = U
NORAD_CAT_ID   = 66748
ELEMENT_SET_NO = 999
REV_AT_EPOCH   = 317
BSTAR          = .63246E-3
MEAN_MOTION_DOT = .12947E-3
MEAN_MOTION_DDOT = 0

